start=new Date('2022-05-22T00:00:00.000Z').valueOf();
sats=[{"CENTER_NAME":"EARTH","MEAN_MOTION_DOT":"-0.00717943","MEAN_ELEMENT_THEORY":"SGP4","ELEMENT_SET_NO":"999","MEAN_ANOMALY":"198.6484","SITE":"AFETR","COUNTRY_CODE":"US","INCLINATION":"53.2174","REV_AT_EPOCH":"130","DECAY_DATE":null,"PERIAPSIS":"398.166","MEAN_MOTION_DDOT":"0.0000000000000","OBJECT_TYPE":"PAYLOAD","TLE_LINE2":"2 52264  53.2174 225.8589 0001605  43.8996 198.6484 15.55998583  1305","EPOCH":"2022-05-21T22:00:00.999936","RA_OF_ASC_NODE":"225.8589","BSTAR":"-0.01108000000000","EPHEMERIS_TYPE":"0","ARG_OF_PERICENTER":"43.8996","LAUNCH_DATE":"2022-04-21","APOAPSIS":"400.341","FILE":"3457577","MEAN_MOTION":"15.55998583","TLE_LINE1":"1 52264U 22041D   22141.91667824 -.00717943  00000-0 -11080-1 0  9995","RCS_SIZE":"LARGE","OBJECT_NAME":"STARLINK-3795","REF_FRAME":"TEME","SEMIMAJOR_AXIS":"6777.388","ECCENTRICITY":"0.00016050","GP_ID":"204195535","TIME_SYSTEM":"UTC","NORAD_CAT_ID":"52264","OBJECT_ID":"2022-041D","CLASSIFICATION_TYPE":"U","PERIOD":"92.545"},{"CENTER_NAME":"EARTH","MEAN_MOTION_DOT":"-0.00718018","MEAN_ELEMENT_THEORY":"SGP4","ELEMENT_SET_NO":"999","MEAN_ANOMALY":"204.0808","SITE":"AFETR","COUNTRY_CODE":"US","INCLINATION":"53.2174","REV_AT_EPOCH":"130","DECAY_DATE":null,"PERIAPSIS":"398.086","MEAN_MOTION_DDOT":"0.0000000000000","OBJECT_TYPE":"PAYLOAD","TLE_LINE2":"2 52265  53.2174 225.8687 0001702  39.2451 204.0808 15.56003289  1301","EPOCH":"2022-05-21T22:00:00.999936","RA_OF_ASC_NODE":"225.8687","BSTAR":"-0.01107900000000","EPHEMERIS_TYPE":"0","ARG_OF_PERICENTER":"39.2451","LAUNCH_DATE":"2022-04-21","APOAPSIS":"400.393","MEAN_MOTION":"15.56003289","FILE":"3457577","TLE_LINE1":"1 52265U 22041E   22141.91667824 -.00718018  00000-0 -11079-1 0  9998","RCS_SIZE":"LARGE","OBJECT_NAME":"STARLINK-3740","REF_FRAME":"TEME","SEMIMAJOR_AXIS":"6777.375","ECCENTRICITY":"0.00017020","GP_ID":"204195740","OBJECT_ID":"2022-041E","NORAD_CAT_ID":"52265","TIME_SYSTEM":"UTC","PERIOD":"92.545","CLASSIFICATION_TYPE":"U"},{"EPHEMERIS_TYPE":"0","BSTAR":"-0.01107700000000","ARG_OF_PERICENTER":"40.0466","LAUNCH_DATE":"2022-04-21","FILE":"3457577","MEAN_MOTION":"15.56007903","APOAPSIS":"400.372","TLE_LINE1":"1 52266U 22041F   22141.91667824 -.00718010  00000-0 -11077-1 0  9999","RCS_SIZE":"MEDIUM","OBJECT_NAME":"STARLINK-3739","SEMIMAJOR_AXIS":"6777.361","REF_FRAME":"TEME","ECCENTRICITY":"0.00016910","GP_ID":"204195959","TIME_SYSTEM":"UTC","NORAD_CAT_ID":"52266","OBJECT_ID":"2022-041F","PERIOD":"92.545","CLASSIFICATION_TYPE":"U","CENTER_NAME":"EARTH","MEAN_MOTION_DOT":"-0.00718010","MEAN_ELEMENT_THEORY":"SGP4","ELEMENT_SET_NO":"999","MEAN_ANOMALY":"204.0573","SITE":"AFETR","INCLINATION":"53.2174","COUNTRY_CODE":"US","DECAY_DATE":null,"REV_AT_EPOCH":"130","MEAN_MOTION_DDOT":"0.0000000000000","PERIAPSIS":"398.080","OBJECT_TYPE":"PAYLOAD","TLE_LINE2":"2 52266  53.2174 225.8775 0001691  40.0466 204.0573 15.56007903  1309","RA_OF_ASC_NODE":"225.8775","EPOCH":"2022-05-21T22:00:00.999936"},{"FILE":"3457577","MEAN_MOTION":"15.56012565","APOAPSIS":"400.294","LAUNCH_DATE":"2022-04-21","RCS_SIZE":"LARGE","OBJECT_NAME":"STARLINK-3748","TLE_LINE1":"1 52267U 22041G   22141.91667824 -.00717988  00000-0 -11075-1 0  9991","ARG_OF_PERICENTER":"43.7379","EPHEMERIS_TYPE":"0","BSTAR":"-0.01107500000000","CLASSIFICATION_TYPE":"U","PERIOD":"92.544","OBJECT_ID":"2022-041G","NORAD_CAT_ID":"52267","TIME_SYSTEM":"UTC","ECCENTRICITY":"0.00015960","SEMIMAJOR_AXIS":"6777.348","REF_FRAME":"TEME","GP_ID":"204196238","ELEMENT_SET_NO":"999","SITE":"AFETR","MEAN_ANOMALY":"201.1438","MEAN_MOTION_DOT":"-0.00717988","CENTER_NAME":"EARTH","MEAN_ELEMENT_THEORY":"SGP4","OBJECT_TYPE":"PAYLOAD","RA_OF_ASC_NODE":"225.8871","EPOCH":"2022-05-21T22:00:00.999936","TLE_LINE2":"2 52267  53.2174 225.8871 0001596  43.7379 201.1438 15.56012565  1302","DECAY_DATE":null,"REV_AT_EPOCH":"130","INCLINATION":"53.2174","COUNTRY_CODE":"US","MEAN_MOTION_DDOT":"0.0000000000000","PERIAPSIS":"398.131"},{"MEAN_ELEMENT_THEORY":"SGP4","MEAN_MOTION_DOT":"-0.00717982","CENTER_NAME":"EARTH","SITE":"AFETR","MEAN_ANOMALY":"205.7876","ELEMENT_SET_NO":"999","MEAN_MOTION_DDOT":"0.0000000000000","PERIAPSIS":"398.061","DECAY_DATE":null,"REV_AT_EPOCH":"130","INCLINATION":"53.2174","COUNTRY_CODE":"US","RA_OF_ASC_NODE":"225.9144","EPOCH":"2022-05-21T22:00:00.999936","TLE_LINE2":"2 52268  53.2174 225.9144 0001640  41.4275 205.7876 15.56026501  1308","OBJECT_TYPE":"PAYLOAD","ARG_OF_PERICENTER":"41.4275","EPHEMERIS_TYPE":"0","BSTAR":"-0.01106900000000","OBJECT_NAME":"STARLINK-3746","RCS_SIZE":"LARGE","TLE_LINE1":"1 52268U 22041H   22141.91667824 -.00717982  00000-0 -11069-1 0  9999","FILE":"3457577","MEAN_MOTION":"15.56026501","APOAPSIS":"400.284","LAUNCH_DATE":"2022-04-21","GP_ID":"204195857","ECCENTRICITY":"0.00016400","SEMIMAJOR_AXIS":"6777.307","REF_FRAME":"TEME","CLASSIFICATION_TYPE":"U","PERIOD":"92.543","NORAD_CAT_ID":"52268","OBJECT_ID":"2022-041H","TIME_SYSTEM":"UTC"},{"MEAN_MOTION":"15.56017201","FILE":"3457577","APOAPSIS":"400.272","LAUNCH_DATE":"2022-04-21","RCS_SIZE":"LARGE","OBJECT_NAME":"STARLINK-3791","TLE_LINE1":"1 52269U 22041J   22141.91667824 -.00717980  00000-0 -11073-1 0  9993","ARG_OF_PERICENTER":"44.5473","EPHEMERIS_TYPE":"0","BSTAR":"-0.01107300000000","CLASSIFICATION_TYPE":"U","PERIOD":"92.544","TIME_SYSTEM":"UTC","NORAD_CAT_ID":"52269","OBJECT_ID":"2022-041J","ECCENTRICITY":"0.00015830","SEMIMAJOR_AXIS":"6777.334","REF_FRAME":"TEME","GP_ID":"204196062","ELEMENT_SET_NO":"999","SITE":"AFETR","MEAN_ANOMALY":"201.1123","MEAN_MOTION_DOT":"-0.00717980","CENTER_NAME":"EARTH","MEAN_ELEMENT_THEORY":"SGP4","OBJECT_TYPE":"PAYLOAD","RA_OF_ASC_NODE":"225.8963","EPOCH":"2022-05-21T22:00:00.999936","TLE_LINE2":"2 52269  53.2174 225.8963 0001583  44.5473 201.1123 15.56017201  1309","DECAY_DATE":null,"REV_AT_EPOCH":"130","INCLINATION":"53.2174","COUNTRY_CODE":"US","MEAN_MOTION_DDOT":"0.0000000000000","PERIAPSIS":"398.127"},{"PERIAPSIS":"398.026","MEAN_MOTION_DDOT":"0.0000000000000","REV_AT_EPOCH":"130","DECAY_DATE":null,"COUNTRY_CODE":"US","INCLINATION":"53.2174","EPOCH":"2022-05-21T22:00:00.999936","RA_OF_ASC_NODE":"225.9199","TLE_LINE2":"2 52270  53.2174 225.9199 0001688  40.1025 208.3274 15.56027139  1301","OBJECT_TYPE":"PAYLOAD","MEAN_ELEMENT_THEORY":"SGP4","MEAN_MOTION_DOT":"-0.00717947","CENTER_NAME":"EARTH","SITE":"AFETR","MEAN_ANOMALY":"208.3274","ELEMENT_SET_NO":"999","GP_ID":"204195638","ECCENTRICITY":"0.00016880","REF_FRAME":"TEME","SEMIMAJOR_AXIS":"6777.306","PERIOD":"92.543","CLASSIFICATION_TYPE":"U","OBJECT_ID":"2022-041K","NORAD_CAT_ID":"52270","TIME_SYSTEM":"UTC","ARG_OF_PERICENTER":"40.1025","BSTAR":"-0.01106800000000","EPHEMERIS_TYPE":"0","OBJECT_NAME":"STARLINK-3804","RCS_SIZE":"LARGE","TLE_LINE1":"1 52270U 22041K   22141.91667824 -.00717947  00000-0 -11068-1 0  9992","APOAPSIS":"400.315","FILE":"3457577","MEAN_MOTION":"15.56027139","LAUNCH_DATE":"2022-04-21"},{"ARG_OF_PERICENTER":"42.0905","BSTAR":"-0.01107100000000","EPHEMERIS_TYPE":"0","APOAPSIS":"400.291","MEAN_MOTION":"15.56021863","FILE":"3457577","LAUNCH_DATE":"2022-04-21","RCS_SIZE":"LARGE","OBJECT_NAME":"STARLINK-3788","TLE_LINE1":"1 52271U 22041L   22141.91667824 -.00717985  00000-0 -11071-1 0  9999","ECCENTRICITY":"0.00016300","REF_FRAME":"TEME","SEMIMAJOR_AXIS":"6777.321","GP_ID":"204196179","CLASSIFICATION_TYPE":"U","PERIOD":"92.544","NORAD_CAT_ID":"52271","TIME_SYSTEM":"UTC","OBJECT_ID":"2022-041L","MEAN_MOTION_DOT":"-0.00717985","CENTER_NAME":"EARTH","MEAN_ELEMENT_THEORY":"SGP4","ELEMENT_SET_NO":"999","SITE":"AFETR","MEAN_ANOMALY":"204.3468","REV_AT_EPOCH":"130","DECAY_DATE":null,"COUNTRY_CODE":"US","INCLINATION":"53.2174","PERIAPSIS":"398.081","MEAN_MOTION_DDOT":"0.0000000000000","OBJECT_TYPE":"PAYLOAD","EPOCH":"2022-05-21T22:00:00.999936","RA_OF_ASC_NODE":"225.9055","TLE_LINE2":"2 52271  53.2174 225.9055 0001630  42.0905 204.3468 15.56021863  1307"},{"MEAN_MOTION_DOT":"-0.00718044","CENTER_NAME":"EARTH","MEAN_ELEMENT_THEORY":"SGP4","ELEMENT_SET_NO":"999","SITE":"AFETR","MEAN_ANOMALY":"208.5499","DECAY_DATE":null,"REV_AT_EPOCH":"130","INCLINATION":"53.2174","COUNTRY_CODE":"US","MEAN_MOTION_DDOT":"0.0000000000000","PERIAPSIS":"398.035","OBJECT_TYPE":"PAYLOAD","RA_OF_ASC_NODE":"225.9275","EPOCH":"2022-05-21T22:00:00.999936","TLE_LINE2":"2 52272  53.2174 225.9275 0001636  41.4355 208.5499 15.56036349  1305","ARG_OF_PERICENTER":"41.4355","EPHEMERIS_TYPE":"0","BSTAR":"-0.01106600000000","MEAN_MOTION":"15.56036349","FILE":"3457577","APOAPSIS":"400.253","LAUNCH_DATE":"2022-04-21","OBJECT_NAME":"STARLINK-3781","RCS_SIZE":"LARGE","TLE_LINE1":"1 52272U 22041M   22141.91667824 -.00718044  00000-0 -11066-1 0  9991","ECCENTRICITY":"0.00016360","SEMIMAJOR_AXIS":"6777.279","REF_FRAME":"TEME","GP_ID":"204195536","CLASSIFICATION_TYPE":"U","PERIOD":"92.543","NORAD_CAT_ID":"52272","OBJECT_ID":"2022-041M","TIME_SYSTEM":"UTC"},{"CENTER_NAME":"EARTH","MEAN_MOTION_DOT":"-0.00083486","MEAN_ELEMENT_THEORY":"SGP4","ELEMENT_SET_NO":"999","MEAN_ANOMALY":"225.7437","SITE":"AFETR","INCLINATION":"53.2134","COUNTRY_CODE":"US","DECAY_DATE":null,"REV_AT_EPOCH":"130","MEAN_MOTION_DDOT":"0.0000000000000","PERIAPSIS":"347.415","OBJECT_TYPE":"PAYLOAD","TLE_LINE2":"2 52273  53.2134 225.2137 0003335  10.2029 225.7437 15.73235695  1309","RA_OF_ASC_NODE":"225.2137","EPOCH":"2022-05-21T22:00:00.999936","EPHEMERIS_TYPE":"0","BSTAR":"-0.00059518000000","ARG_OF_PERICENTER":"10.2029","LAUNCH_DATE":"2022-04-21","FILE":"3457577","MEAN_MOTION":"15.73235695","APOAPSIS":"351.902","TLE_LINE1":"1 52273U 22041N   22141.91667824 -.00083486  00000-0 -59518-3 0  9993","RCS_SIZE":"LARGE","OBJECT_NAME":"STARLINK-3782","SEMIMAJOR_AXIS":"6727.793","REF_FRAME":"TEME","ECCENTRICITY":"0.00033350","GP_ID":"204195741","NORAD_CAT_ID":"52273","TIME_SYSTEM":"UTC","OBJECT_ID":"2022-041N","CLASSIFICATION_TYPE":"U","PERIOD":"91.531"}];
